[
    {
        "CCSDS_OMM_VERS": "3.0",
        "COMMENT": "GENERATED VIA SPACE-TRACK.ORG API",
        "CREATION_DATE": "2025-04-14T06:36:32",
        "ORIGINATOR": "18 SPCS",
        "OBJECT_NAME": "COSMOS 2527 (GLONASS)",
        "OBJECT_ID": "2018-053A",
        "CENTER_NAME": "EARTH",
        "REF_FRAME": "TEME",
        "TIME_SYSTEM": "UTC",
        "MEAN_ELEMENT_THEORY": "SGP4",
        "EPOCH": "2025-04-13T17:03:35.658432",
        "MEAN_MOTION": "2.13102325",
        "ECCENTRICITY": "0.00093500",
        "INCLINATION": "65.3454",
        "RA_OF_ASC_NODE": "88.2573",
        "ARG_OF_PERICENTER": "247.2261",
        "MEAN_ANOMALY": "112.6652",
        "EPHEMERIS_TYPE": "0",
        "CLASSIFICATION_TYPE": "U",
        "NORAD_CAT_ID": "43508",
        "ELEMENT_SET_NO": "999",
        "REV_AT_EPOCH": "5312",
        "BSTAR": "0.00000000000000",
        "MEAN_MOTION_DOT": "0.00000022",
        "MEAN_MOTION_DDOT": "0.0000000000000",
        "SEMIMAJOR_AXIS": "25507.998",
        "PERIOD": "675.732",
        "APOAPSIS": "19153.713",
        "PERIAPSIS": "19106.014",
        "OBJECT_TYPE": "PAYLOAD",
        "RCS_SIZE": "LARGE",
        "COUNTRY_CODE": "CIS",
        "LAUNCH_DATE": "2018-06-16",
        "SITE": "PKMTR",
        "DECAY_DATE": null,
        "FILE": "4701390",
        "GP_ID": "285554791",
        "TLE_LINE0": "0 COSMOS 2527 (GLONASS)",
        "TLE_LINE1": "1 43508U 18053A   25103.71082938  .00000022  00000-0  00000+0 0  9999",
        "TLE_LINE2": "2 43508  65.3454  88.2573 0009350 247.2261 112.6652  2.13102325 53126"
    }
]